STARLINK-3907           
1 52501U 22049BC  26068.32735819 -.00000716  00000+0 -26908-4 0  9994
2 52501  53.2181  50.5442 0001227  84.7519 275.3613 15.08831714212348
LEMUR-2-AHMED-ASRAR     
1 60576U 24149DN  26068.73265438  .00013045  00000+0  79773-3 0  9992
2 60576  97.7021 152.9847 0001633  18.5035 341.6253 15.10376432 85541
